{
"type": "FeatureCollection",
"name": "houses2",
"crs": { "type": "name", "properties": { "name": "urn:ogc:def:crs:OGC:1.3:CRS84" } },
"features": [
{ "type": "Feature", "properties": { "addr:housenumber": "14", "addr:street": "Флотская улица", "data_residents_sum": 64.0, "xcoord": 29.768982799551519, "ycoord": 59.997444239712941 }, "geometry": { "type": "Point", "coordinates": [ 29.768982799551519, 59.997444239712941 ] } },
{ "type": "Feature", "properties": { "addr:housenumber": "12", "addr:street": "улица Карла Маркса", "data_residents_sum": 29.0, "xcoord": 29.7682277, "ycoord": 59.99654735 }, "geometry": { "type": "Point", "coordinates": [ 29.7682277, 59.99654735 ] } },
{ "type": "Feature", "properties": { "addr:housenumber": "21", "addr:street": "Флотская улица", "data_residents_sum": 126.0, "xcoord": 29.771993342067976, "ycoord": 59.997566171524333 }, "geometry": { "type": "Point", "coordinates": [ 29.771993342067976, 59.997566171524333 ] } },
{ "type": "Feature", "properties": { "addr:housenumber": "2", "addr:street": "Флотская улица", "data_residents_sum": 16.0, "xcoord": 29.777686385592286, "ycoord": 59.995087462055196 }, "geometry": { "type": "Point", "coordinates": [ 29.777686385592286, 59.995087462055196 ] } },
{ "type": "Feature", "properties": { "addr:housenumber": "17", "addr:street": "Флотская улица", "data_residents_sum": 30.0, "xcoord": 29.7734402, "ycoord": 59.9972967 }, "geometry": { "type": "Point", "coordinates": [ 29.7734402, 59.9972967 ] } },
{ "type": "Feature", "properties": { "addr:housenumber": "3", "addr:street": "Коммунистическая улица", "data_residents_sum": 38.0, "xcoord": 29.77054975, "ycoord": 59.98971 }, "geometry": { "type": "Point", "coordinates": [ 29.77054975, 59.98971 ] } },
{ "type": "Feature", "properties": { "addr:housenumber": "2", "addr:street": "Манежный переулок", "data_residents_sum": 400.0, "xcoord": 29.773591801196606, "ycoord": 59.990576996606102 }, "geometry": { "type": "Point", "coordinates": [ 29.773591801196606, 59.990576996606102 ] } },
{ "type": "Feature", "properties": { "addr:housenumber": "45", "addr:street": "Советская улица", "data_residents_sum": 65.0, "xcoord": 29.77004935, "ycoord": 59.9952186 }, "geometry": { "type": "Point", "coordinates": [ 29.77004935, 59.9952186 ] } },
{ "type": "Feature", "properties": { "addr:housenumber": "2", "addr:street": "Якорная площадь", "data_residents_sum": 284.0, "xcoord": 29.780068585525434, "ycoord": 59.991727702953064 }, "geometry": { "type": "Point", "coordinates": [ 29.780068585525434, 59.991727702953064 ] } },
{ "type": "Feature", "properties": { "addr:housenumber": "17", "addr:street": "Красная улица", "data_residents_sum": 78.0, "xcoord": 29.7737832, "ycoord": 59.9901656 }, "geometry": { "type": "Point", "coordinates": [ 29.7737832, 59.9901656 ] } },
{ "type": "Feature", "properties": { "addr:housenumber": "15", "addr:street": "Красная улица", "data_residents_sum": 122.0, "xcoord": 29.77446735949831, "ycoord": 59.989915811530388 }, "geometry": { "type": "Point", "coordinates": [ 29.77446735949831, 59.989915811530388 ] } },
{ "type": "Feature", "properties": { "addr:housenumber": "40", "addr:street": "проспект Ленина", "data_residents_sum": 64.0, "xcoord": 29.76152704373898, "ycoord": 59.990813374541226 }, "geometry": { "type": "Point", "coordinates": [ 29.76152704373898, 59.990813374541226 ] } },
{ "type": "Feature", "properties": { "addr:housenumber": "39", "addr:street": "Советская улица", "data_residents_sum": 176.0, "xcoord": 29.7750309, "ycoord": 59.99423 }, "geometry": { "type": "Point", "coordinates": [ 29.7750309, 59.99423 ] } },
{ "type": "Feature", "properties": { "addr:housenumber": "41", "addr:street": "Советская улица", "data_residents_sum": 27.0, "xcoord": 29.77338129680852, "ycoord": 59.994554914490287 }, "geometry": { "type": "Point", "coordinates": [ 29.77338129680852, 59.994554914490287 ] } },
{ "type": "Feature", "properties": { "addr:housenumber": "37", "addr:street": "Советская улица", "data_residents_sum": 34.0, "xcoord": 29.776397236303723, "ycoord": 59.993968174810085 }, "geometry": { "type": "Point", "coordinates": [ 29.776397236303723, 59.993968174810085 ] } },
{ "type": "Feature", "properties": { "addr:housenumber": "2", "addr:street": "Красная улица", "data_residents_sum": 61.0, "xcoord": 29.773346763050419, "ycoord": 59.987403355339097 }, "geometry": { "type": "Point", "coordinates": [ 29.773346763050419, 59.987403355339097 ] } },
{ "type": "Feature", "properties": { "addr:housenumber": "10 к1", "addr:street": "Петровская улица", "data_residents_sum": 37.0, "xcoord": 29.775762327564941, "ycoord": 59.987301072005067 }, "geometry": { "type": "Point", "coordinates": [ 29.775762327564941, 59.987301072005067 ] } },
{ "type": "Feature", "properties": { "addr:housenumber": "9", "addr:street": "улица Мартынова", "data_residents_sum": 158.0, "xcoord": 29.75961989147741, "ycoord": 59.991420240874234 }, "geometry": { "type": "Point", "coordinates": [ 29.75961989147741, 59.991420240874234 ] } },
{ "type": "Feature", "properties": { "addr:housenumber": "10 к3", "addr:street": "Петровская улица", "data_residents_sum": 106.0, "xcoord": 29.775020437983223, "ycoord": 59.987050173775401 }, "geometry": { "type": "Point", "coordinates": [ 29.775020437983223, 59.987050173775401 ] } },
{ "type": "Feature", "properties": { "addr:housenumber": "13\/6", "addr:street": "Петровская улица", "data_residents_sum": 252.0, "xcoord": 29.774202425442503, "ycoord": 59.988259357983708 }, "geometry": { "type": "Point", "coordinates": [ 29.774202425442503, 59.988259357983708 ] } },
{ "type": "Feature", "properties": { "addr:housenumber": "4\/18", "addr:street": "Коммунистическая улица", "data_residents_sum": 141.0, "xcoord": 29.770558503260883, "ycoord": 59.988340428078565 }, "geometry": { "type": "Point", "coordinates": [ 29.770558503260883, 59.988340428078565 ] } },
{ "type": "Feature", "properties": { "addr:housenumber": "12\/4", "addr:street": "Петровская улица", "data_residents_sum": 261.0, "xcoord": 29.774042853347151, "ycoord": 59.987636311476045 }, "geometry": { "type": "Point", "coordinates": [ 29.774042853347151, 59.987636311476045 ] } },
{ "type": "Feature", "properties": { "addr:housenumber": "38", "addr:street": "Кронштадтское шоссе", "data_residents_sum": 293.0, "xcoord": 29.723148712535725, "ycoord": 60.011577015568456 }, "geometry": { "type": "Point", "coordinates": [ 29.723148712535725, 60.011577015568456 ] } },
{ "type": "Feature", "properties": { "addr:housenumber": "10 к2", "addr:street": "Петровская улица", "data_residents_sum": 29.0, "xcoord": 29.775710969852462, "ycoord": 59.986935520646774 }, "geometry": { "type": "Point", "coordinates": [ 29.775710969852462, 59.986935520646774 ] } },
{ "type": "Feature", "properties": { "addr:housenumber": "6\/21", "addr:street": "Коммунистическая улица", "data_residents_sum": 194.0, "xcoord": 29.771025057080116, "ycoord": 59.988932929887248 }, "geometry": { "type": "Point", "coordinates": [ 29.771025057080116, 59.988932929887248 ] } },
{ "type": "Feature", "properties": { "addr:housenumber": "15", "addr:street": "улица Велещинского", "data_residents_sum": 274.0, "xcoord": 29.758492647937231, "ycoord": 59.994447250414105 }, "geometry": { "type": "Point", "coordinates": [ 29.758492647937231, 59.994447250414105 ] } },
{ "type": "Feature", "properties": { "addr:housenumber": "34", "addr:street": "улица Зосимова", "data_residents_sum": 12.0, "xcoord": 29.7578017, "ycoord": 59.9952595 }, "geometry": { "type": "Point", "coordinates": [ 29.7578017, 59.9952595 ] } },
{ "type": "Feature", "properties": { "addr:housenumber": "19\/40", "addr:street": "улица Велещинского", "data_residents_sum": 347.0, "xcoord": 29.757336082027606, "ycoord": 59.994754055837795 }, "geometry": { "type": "Point", "coordinates": [ 29.757336082027606, 59.994754055837795 ] } },
{ "type": "Feature", "properties": { "addr:housenumber": "3", "addr:street": "Петровская улица", "data_residents_sum": 312.0, "xcoord": 29.787546084739809, "ycoord": 59.985630598490729 }, "geometry": { "type": "Point", "coordinates": [ 29.787546084739809, 59.985630598490729 ] } },
{ "type": "Feature", "properties": { "addr:housenumber": "3", "addr:street": "улица Станюковича", "data_residents_sum": 109.0, "xcoord": 29.724048759183638, "ycoord": 60.009438693160384 }, "geometry": { "type": "Point", "coordinates": [ 29.724048759183638, 60.009438693160384 ] } },
{ "type": "Feature", "properties": { "addr:housenumber": "9", "addr:street": "улица Зосимова", "data_residents_sum": 44.0, "xcoord": 29.758604909711096, "ycoord": 59.9974439413472 }, "geometry": { "type": "Point", "coordinates": [ 29.758604909711096, 59.9974439413472 ] } },
{ "type": "Feature", "properties": { "addr:housenumber": "18\/15", "addr:street": "улица Зосимова", "data_residents_sum": 79.0, "xcoord": 29.760430193526034, "ycoord": 59.998266539299756 }, "geometry": { "type": "Point", "coordinates": [ 29.760430193526034, 59.998266539299756 ] } },
{ "type": "Feature", "properties": { "addr:housenumber": "6", "addr:street": "улица Станюковича", "data_residents_sum": 804.0, "xcoord": 29.721308511681915, "ycoord": 60.00958734874564 }, "geometry": { "type": "Point", "coordinates": [ 29.721308511681915, 60.00958734874564 ] } },
{ "type": "Feature", "properties": { "addr:housenumber": "39А", "addr:street": "проспект Ленина", "data_residents_sum": 27.0, "xcoord": 29.762984908597094, "ycoord": 59.993638033471534 }, "geometry": { "type": "Point", "coordinates": [ 29.762984908597094, 59.993638033471534 ] } },
{ "type": "Feature", "properties": { "addr:housenumber": "3", "addr:street": "Посадская улица", "data_residents_sum": 95.0, "xcoord": 29.765259981807226, "ycoord": 60.000850794068924 }, "geometry": { "type": "Point", "coordinates": [ 29.765259981807226, 60.000850794068924 ] } },
{ "type": "Feature", "properties": { "addr:housenumber": "1", "addr:street": "Посадская улица", "data_residents_sum": 64.0, "xcoord": 29.765685604615793, "ycoord": 60.001676545783091 }, "geometry": { "type": "Point", "coordinates": [ 29.765685604615793, 60.001676545783091 ] } },
{ "type": "Feature", "properties": { "addr:housenumber": null, "addr:street": null, "data_residents_sum": 100.0, "xcoord": 29.764614984614628, "ycoord": 60.002104331779869 }, "geometry": { "type": "Point", "coordinates": [ 29.764614984614628, 60.002104331779869 ] } },
{ "type": "Feature", "properties": { "addr:housenumber": "5", "addr:street": "Посадская улица", "data_residents_sum": 60.0, "xcoord": 29.764510109601364, "ycoord": 60.000151034159316 }, "geometry": { "type": "Point", "coordinates": [ 29.764510109601364, 60.000151034159316 ] } },
{ "type": "Feature", "properties": { "addr:housenumber": "6\/40", "addr:street": "улица Зосимова", "data_residents_sum": 88.0, "xcoord": 29.76258142454661, "ycoord": 59.999979589482514 }, "geometry": { "type": "Point", "coordinates": [ 29.76258142454661, 59.999979589482514 ] } },
{ "type": "Feature", "properties": { "addr:housenumber": "17\/13", "addr:street": "Гражданская улица", "data_residents_sum": 53.0, "xcoord": 29.763283247501068, "ycoord": 59.998635948023775 }, "geometry": { "type": "Point", "coordinates": [ 29.763283247501068, 59.998635948023775 ] } },
{ "type": "Feature", "properties": { "addr:housenumber": "23", "addr:street": "Гражданская улица", "data_residents_sum": 17.0, "xcoord": 29.761678179404338, "ycoord": 59.99894911705465 }, "geometry": { "type": "Point", "coordinates": [ 29.761678179404338, 59.99894911705465 ] } },
{ "type": "Feature", "properties": { "addr:housenumber": "21", "addr:street": "Гражданская улица", "data_residents_sum": 31.0, "xcoord": 29.76254795986349, "ycoord": 59.998890362076615 }, "geometry": { "type": "Point", "coordinates": [ 29.76254795986349, 59.998890362076615 ] } },
{ "type": "Feature", "properties": { "addr:housenumber": "10", "addr:street": "улица Зосимова", "data_residents_sum": 105.0, "xcoord": 29.761080145609217, "ycoord": 59.999109731849785 }, "geometry": { "type": "Point", "coordinates": [ 29.761080145609217, 59.999109731849785 ] } },
{ "type": "Feature", "properties": { "addr:housenumber": "22 к1", "addr:street": "улица Зосимова", "data_residents_sum": 135.0, "xcoord": 29.7599171, "ycoord": 59.997302 }, "geometry": { "type": "Point", "coordinates": [ 29.7599171, 59.997302 ] } },
{ "type": "Feature", "properties": { "addr:housenumber": "17\/14", "addr:street": "Посадская улица", "data_residents_sum": 91.0, "xcoord": 29.762216121343751, "ycoord": 59.997279074496092 }, "geometry": { "type": "Point", "coordinates": [ 29.762216121343751, 59.997279074496092 ] } },
{ "type": "Feature", "properties": { "addr:housenumber": "20\/20", "addr:street": "улица Всеволода Вишневского", "data_residents_sum": 34.0, "xcoord": 29.760358925020945, "ycoord": 59.997690866337578 }, "geometry": { "type": "Point", "coordinates": [ 29.760358925020945, 59.997690866337578 ] } },
{ "type": "Feature", "properties": { "addr:housenumber": "19", "addr:street": "Посадская улица", "data_residents_sum": 107.0, "xcoord": 29.761398035662307, "ycoord": 59.996994723010893 }, "geometry": { "type": "Point", "coordinates": [ 29.761398035662307, 59.996994723010893 ] } },
{ "type": "Feature", "properties": { "addr:housenumber": "22 к2", "addr:street": "улица Зосимова", "data_residents_sum": 84.0, "xcoord": 29.76052405, "ycoord": 59.99732415 }, "geometry": { "type": "Point", "coordinates": [ 29.76052405, 59.99732415 ] } },
{ "type": "Feature", "properties": { "addr:housenumber": "18", "addr:street": "улица Всеволода Вишневского", "data_residents_sum": 351.0, "xcoord": 29.761516654203966, "ycoord": 59.997466867536168 }, "geometry": { "type": "Point", "coordinates": [ 29.761516654203966, 59.997466867536168 ] } },
{ "type": "Feature", "properties": { "addr:housenumber": "9", "addr:street": "Андреевская улица", "data_residents_sum": 81.0, "xcoord": 29.760968922083507, "ycoord": 59.996718629754312 }, "geometry": { "type": "Point", "coordinates": [ 29.760968922083507, 59.996718629754312 ] } },
{ "type": "Feature", "properties": { "addr:housenumber": "11", "addr:street": "Андреевская улица", "data_residents_sum": 27.0, "xcoord": 29.760318171905524, "ycoord": 59.996864462689871 }, "geometry": { "type": "Point", "coordinates": [ 29.760318171905524, 59.996864462689871 ] } },
{ "type": "Feature", "properties": { "addr:housenumber": "18", "addr:street": "Гражданская улица", "data_residents_sum": 101.0, "xcoord": 29.7622035, "ycoord": 59.998525549999989 }, "geometry": { "type": "Point", "coordinates": [ 29.7622035, 59.998525549999989 ] } },
{ "type": "Feature", "properties": { "addr:housenumber": "13", "addr:street": "улица Всеволода Вишневского", "data_residents_sum": 143.0, "xcoord": 29.761343950390788, "ycoord": 59.998146059077087 }, "geometry": { "type": "Point", "coordinates": [ 29.761343950390788, 59.998146059077087 ] } },
{ "type": "Feature", "properties": { "addr:housenumber": "4", "addr:street": "улица Фейгина", "data_residents_sum": 19.0, "xcoord": 29.759980183738985, "ycoord": 59.995760202773965 }, "geometry": { "type": "Point", "coordinates": [ 29.759980183738985, 59.995760202773965 ] } },
{ "type": "Feature", "properties": { "addr:housenumber": "10", "addr:street": "улица Фейгина", "data_residents_sum": 156.0, "xcoord": 29.759483172207414, "ycoord": 59.995125440362592 }, "geometry": { "type": "Point", "coordinates": [ 29.759483172207414, 59.995125440362592 ] } },
{ "type": "Feature", "properties": { "addr:housenumber": "45", "addr:street": "Посадская улица", "data_residents_sum": 29.0, "xcoord": 29.757914194672487, "ycoord": 59.992138880411851 }, "geometry": { "type": "Point", "coordinates": [ 29.757914194672487, 59.992138880411851 ] } },
{ "type": "Feature", "properties": { "addr:housenumber": null, "addr:street": null, "data_residents_sum": 146.0, "xcoord": 29.756985767913573, "ycoord": 59.991943076508029 }, "geometry": { "type": "Point", "coordinates": [ 29.756985767913573, 59.991943076508029 ] } },
{ "type": "Feature", "properties": { "addr:housenumber": "23", "addr:street": "Посадская улица", "data_residents_sum": 391.0, "xcoord": 29.760905387524321, "ycoord": 59.995789645580942 }, "geometry": { "type": "Point", "coordinates": [ 29.760905387524321, 59.995789645580942 ] } },
{ "type": "Feature", "properties": { "addr:housenumber": "28\/30", "addr:street": "улица Зосимова", "data_residents_sum": 62.0, "xcoord": 29.75868611828842, "ycoord": 59.996285586479239 }, "geometry": { "type": "Point", "coordinates": [ 29.75868611828842, 59.996285586479239 ] } },
{ "type": "Feature", "properties": { "addr:housenumber": "42\/23", "addr:street": "улица Зосимова", "data_residents_sum": 252.0, "xcoord": 29.756681143347169, "ycoord": 59.993786911175569 }, "geometry": { "type": "Point", "coordinates": [ 29.756681143347169, 59.993786911175569 ] } },
{ "type": "Feature", "properties": { "addr:housenumber": "21", "addr:street": "Посадская улица", "data_residents_sum": 107.0, "xcoord": 29.76117194934897, "ycoord": 59.996068964841974 }, "geometry": { "type": "Point", "coordinates": [ 29.76117194934897, 59.996068964841974 ] } },
{ "type": "Feature", "properties": { "addr:housenumber": "12", "addr:street": "Андреевская улица", "data_residents_sum": 27.0, "xcoord": 29.760691332284321, "ycoord": 59.996393446585863 }, "geometry": { "type": "Point", "coordinates": [ 29.760691332284321, 59.996393446585863 ] } },
{ "type": "Feature", "properties": { "addr:housenumber": "47", "addr:street": "Посадская улица", "data_residents_sum": 97.0, "xcoord": 29.75782005, "ycoord": 59.9919619 }, "geometry": { "type": "Point", "coordinates": [ 29.75782005, 59.9919619 ] } },
{ "type": "Feature", "properties": { "addr:housenumber": "25", "addr:street": "Посадская улица", "data_residents_sum": 65.0, "xcoord": 29.7605425, "ycoord": 59.9951923 }, "geometry": { "type": "Point", "coordinates": [ 29.7605425, 59.9951923 ] } },
{ "type": "Feature", "properties": { "addr:housenumber": "14", "addr:street": "Андреевская улица", "data_residents_sum": 189.0, "xcoord": 29.759348653559073, "ycoord": 59.996559384841554 }, "geometry": { "type": "Point", "coordinates": [ 29.759348653559073, 59.996559384841554 ] } },
{ "type": "Feature", "properties": { "addr:housenumber": "51", "addr:street": "Посадская улица", "data_residents_sum": 25.0, "xcoord": 29.757479215822798, "ycoord": 59.991613224820213 }, "geometry": { "type": "Point", "coordinates": [ 29.757479215822798, 59.991613224820213 ] } },
{ "type": "Feature", "properties": { "addr:housenumber": "47", "addr:street": "Владимирская улица", "data_residents_sum": 125.0, "xcoord": 29.765768, "ycoord": 59.99926565 }, "geometry": { "type": "Point", "coordinates": [ 29.765768, 59.99926565 ] } },
{ "type": "Feature", "properties": { "addr:housenumber": "10\/51", "addr:street": "Посадская улица", "data_residents_sum": 20.0, "xcoord": 29.76484715, "ycoord": 59.9994549 }, "geometry": { "type": "Point", "coordinates": [ 29.76484715, 59.999454900000011 ] } },
{ "type": "Feature", "properties": { "addr:housenumber": "5В", "addr:street": "проспект Ленина", "data_residents_sum": 483.0, "xcoord": 29.767177449515149, "ycoord": 59.999466857634651 }, "geometry": { "type": "Point", "coordinates": [ 29.767177449515149, 59.999466857634651 ] } },
{ "type": "Feature", "properties": { "addr:housenumber": "17", "addr:street": "Кронштадтская улица", "data_residents_sum": 40.0, "xcoord": 29.766420014302742, "ycoord": 59.999733150969753 }, "geometry": { "type": "Point", "coordinates": [ 29.766420014302742, 59.999733150969753 ] } },
{ "type": "Feature", "properties": { "addr:housenumber": "4", "addr:street": "Посадская улица", "data_residents_sum": 152.0, "xcoord": 29.766272385709527, "ycoord": 60.001088311632593 }, "geometry": { "type": "Point", "coordinates": [ 29.766272385709527, 60.001088311632593 ] } },
{ "type": "Feature", "properties": { "addr:housenumber": "49", "addr:street": "Владимирская улица", "data_residents_sum": 225.0, "xcoord": 29.765542407529818, "ycoord": 59.999576140770408 }, "geometry": { "type": "Point", "coordinates": [ 29.765542407529818, 59.999576140770408 ] } },
{ "type": "Feature", "properties": { "addr:housenumber": "80", "addr:street": "улица Восстания", "data_residents_sum": 80.0, "xcoord": 29.767670551085068, "ycoord": 60.001279302350994 }, "geometry": { "type": "Point", "coordinates": [ 29.767670551085068, 60.001279302350994 ] } },
{ "type": "Feature", "properties": { "addr:housenumber": "8\/36", "addr:street": "Посадская улица", "data_residents_sum": 182.0, "xcoord": 29.765034469024059, "ycoord": 59.99965174594351 }, "geometry": { "type": "Point", "coordinates": [ 29.765034469024059, 59.99965174594351 ] } },
{ "type": "Feature", "properties": { "addr:housenumber": "5", "addr:street": "проспект Ленина", "data_residents_sum": 357.0, "xcoord": 29.767150415717595, "ycoord": 59.999044837791452 }, "geometry": { "type": "Point", "coordinates": [ 29.767150415717595, 59.999044837791452 ] } },
{ "type": "Feature", "properties": { "addr:housenumber": "32", "addr:street": "Владимирская улица", "data_residents_sum": 19.0, "xcoord": 29.765612922914084, "ycoord": 59.998979471334764 }, "geometry": { "type": "Point", "coordinates": [ 29.765612922914084, 59.998979471334764 ] } },
{ "type": "Feature", "properties": { "addr:housenumber": "9", "addr:street": "Гражданская улица", "data_residents_sum": 131.0, "xcoord": 29.7658762823899, "ycoord": 59.998094546031012 }, "geometry": { "type": "Point", "coordinates": [ 29.7658762823899, 59.998094546031012 ] } },
{ "type": "Feature", "properties": { "addr:housenumber": "7\/20", "addr:street": "улица Всеволода Вишневского", "data_residents_sum": 160.0, "xcoord": 29.763479421711704, "ycoord": 59.997578454136551 }, "geometry": { "type": "Point", "coordinates": [ 29.763479421711704, 59.997578454136551 ] } },
{ "type": "Feature", "properties": { "addr:housenumber": "11", "addr:street": "Гражданская улица", "data_residents_sum": 180.0, "xcoord": 29.765323292347919, "ycoord": 59.998195170144882 }, "geometry": { "type": "Point", "coordinates": [ 29.765323292347919, 59.998195170144882 ] } },
{ "type": "Feature", "properties": { "addr:housenumber": "15", "addr:street": "Гражданская улица", "data_residents_sum": 158.0, "xcoord": 29.7641379763439, "ycoord": 59.998463056155018 }, "geometry": { "type": "Point", "coordinates": [ 29.7641379763439, 59.998463056155018 ] } },
{ "type": "Feature", "properties": { "addr:housenumber": "6-8", "addr:street": "Большевистская улица", "data_residents_sum": 94.0, "xcoord": 29.764564081415944, "ycoord": 59.997511593608976 }, "geometry": { "type": "Point", "coordinates": [ 29.764564081415944, 59.997511593608976 ] } },
{ "type": "Feature", "properties": { "addr:housenumber": "16", "addr:street": "Посадская улица", "data_residents_sum": 65.0, "xcoord": 29.763712889153485, "ycoord": 59.998054731832681 }, "geometry": { "type": "Point", "coordinates": [ 29.763712889153485, 59.998054731832681 ] } },
{ "type": "Feature", "properties": { "addr:housenumber": "8", "addr:street": "Гражданская улица", "data_residents_sum": 90.0, "xcoord": 29.764872030291958, "ycoord": 59.997944737372222 }, "geometry": { "type": "Point", "coordinates": [ 29.764872030291958, 59.997944737372222 ] } },
{ "type": "Feature", "properties": { "addr:housenumber": "12", "addr:street": "Посадская улица", "data_residents_sum": 7.0, "xcoord": 29.76458195, "ycoord": 59.9988643 }, "geometry": { "type": "Point", "coordinates": [ 29.76458195, 59.9988643 ] } },
{ "type": "Feature", "properties": { "addr:housenumber": "5", "addr:street": "улица Всеволода Вишневского", "data_residents_sum": 44.0, "xcoord": 29.764242253001431, "ycoord": 59.99725420989958 }, "geometry": { "type": "Point", "coordinates": [ 29.764242253001431, 59.99725420989958 ] } },
{ "type": "Feature", "properties": { "addr:housenumber": "7\/11", "addr:street": "Гражданская улица", "data_residents_sum": 46.0, "xcoord": 29.766588952283527, "ycoord": 59.997989778403557 }, "geometry": { "type": "Point", "coordinates": [ 29.766588952283527, 59.997989778403557 ] } },
{ "type": "Feature", "properties": { "addr:housenumber": "10", "addr:street": "Гражданская улица", "data_residents_sum": 30.0, "xcoord": 29.764405072125211, "ycoord": 59.998055815481024 }, "geometry": { "type": "Point", "coordinates": [ 29.764405072125211, 59.998055815481024 ] } },
{ "type": "Feature", "properties": { "addr:housenumber": "15", "addr:street": "проспект Ленина", "data_residents_sum": 93.0, "xcoord": 29.765809451122355, "ycoord": 59.997049832928191 }, "geometry": { "type": "Point", "coordinates": [ 29.765809451122355, 59.997049832928191 ] } },
{ "type": "Feature", "properties": { "addr:housenumber": "7", "addr:street": "улица Велещинского", "data_residents_sum": 51.0, "xcoord": 29.76198485, "ycoord": 59.9937093 }, "geometry": { "type": "Point", "coordinates": [ 29.76198485, 59.9937093 ] } },
{ "type": "Feature", "properties": { "addr:housenumber": "22", "addr:street": "Посадская улица", "data_residents_sum": 102.0, "xcoord": 29.763221765290378, "ycoord": 59.9970915332771 }, "geometry": { "type": "Point", "coordinates": [ 29.763221765290378, 59.9970915332771 ] } },
{ "type": "Feature", "properties": { "addr:housenumber": "25\/2", "addr:street": "проспект Ленина", "data_residents_sum": 118.0, "xcoord": 29.764412387008822, "ycoord": 59.995455056988732 }, "geometry": { "type": "Point", "coordinates": [ 29.764412387008822, 59.995455056988732 ] } },
{ "type": "Feature", "properties": { "addr:housenumber": "1", "addr:street": "улица Юрия Инге", "data_residents_sum": 121.0, "xcoord": 29.762765838796003, "ycoord": 59.995626058513153 }, "geometry": { "type": "Point", "coordinates": [ 29.762765838796003, 59.995626058513153 ] } },
{ "type": "Feature", "properties": { "addr:housenumber": "26", "addr:street": "Посадская улица", "data_residents_sum": 249.0, "xcoord": 29.7616033, "ycoord": 59.9956026 }, "geometry": { "type": "Point", "coordinates": [ 29.7616033, 59.9956026 ] } },
{ "type": "Feature", "properties": { "addr:housenumber": "35", "addr:street": "проспект Ленина", "data_residents_sum": 46.0, "xcoord": 29.763453421861673, "ycoord": 59.9942593905945 }, "geometry": { "type": "Point", "coordinates": [ 29.763453421861673, 59.9942593905945 ] } },
{ "type": "Feature", "properties": { "addr:housenumber": "33", "addr:street": "проспект Ленина", "data_residents_sum": 133.0, "xcoord": 29.763686809987284, "ycoord": 59.994479993122226 }, "geometry": { "type": "Point", "coordinates": [ 29.763686809987284, 59.994479993122226 ] } },
{ "type": "Feature", "properties": { "addr:housenumber": "2\/4", "addr:street": "улица Юрия Инге", "data_residents_sum": 86.0, "xcoord": 29.76328955, "ycoord": 59.9952893 }, "geometry": { "type": "Point", "coordinates": [ 29.76328955, 59.995289299999989 ] } },
{ "type": "Feature", "properties": { "addr:housenumber": "5", "addr:street": "Андреевская улица", "data_residents_sum": 69.0, "xcoord": 29.763198958712238, "ycoord": 59.996181755830051 }, "geometry": { "type": "Point", "coordinates": [ 29.763198958712238, 59.996181755830051 ] } },
{ "type": "Feature", "properties": { "addr:housenumber": "36\/11", "addr:street": "Посадская улица", "data_residents_sum": 242.0, "xcoord": 29.760531560750131, "ycoord": 59.994260563059377 }, "geometry": { "type": "Point", "coordinates": [ 29.760531560750131, 59.994260563059377 ] } },
{ "type": "Feature", "properties": { "addr:housenumber": "3", "addr:street": "улица Юрия Инге", "data_residents_sum": 92.0, "xcoord": 29.762204938846107, "ycoord": 59.99501091501056 }, "geometry": { "type": "Point", "coordinates": [ 29.762204938846107, 59.99501091501056 ] } },
{ "type": "Feature", "properties": { "addr:housenumber": "11", "addr:street": "улица Юрия Инге", "data_residents_sum": 97.0, "xcoord": 29.761528185275857, "ycoord": 59.99435073233289 }, "geometry": { "type": "Point", "coordinates": [ 29.761528185275857, 59.99435073233289 ] } },
{ "type": "Feature", "properties": { "addr:housenumber": "8", "addr:street": "улица Юрия Инге", "data_residents_sum": 166.0, "xcoord": 29.762291413401552, "ycoord": 59.994291193832929 }, "geometry": { "type": "Point", "coordinates": [ 29.762291413401552, 59.994291193832929 ] } },
{ "type": "Feature", "properties": { "addr:housenumber": "19", "addr:street": "проспект Ленина", "data_residents_sum": 12.0, "xcoord": 29.765435631049534, "ycoord": 59.996459404547053 }, "geometry": { "type": "Point", "coordinates": [ 29.765435631049534, 59.996459404547053 ] } },
{ "type": "Feature", "properties": { "addr:housenumber": "17", "addr:street": "проспект Ленина", "data_residents_sum": 27.0, "xcoord": 29.76556915, "ycoord": 59.9966263 }, "geometry": { "type": "Point", "coordinates": [ 29.76556915, 59.9966263 ] } },
{ "type": "Feature", "properties": { "addr:housenumber": "9\/13", "addr:street": "улица Велещинского", "data_residents_sum": 138.0, "xcoord": 29.761151436473455, "ycoord": 59.99395602047381 }, "geometry": { "type": "Point", "coordinates": [ 29.761151436473455, 59.99395602047381 ] } },
{ "type": "Feature", "properties": { "addr:housenumber": "12", "addr:street": "улица Велещинского", "data_residents_sum": 50.0, "xcoord": 29.7612782850244, "ycoord": 59.993510488658679 }, "geometry": { "type": "Point", "coordinates": [ 29.7612782850244, 59.993510488658679 ] } },
{ "type": "Feature", "properties": { "addr:housenumber": "53", "addr:street": "проспект Ленина", "data_residents_sum": 700.0, "xcoord": 29.760993771793039, "ycoord": 59.991269929694099 }, "geometry": { "type": "Point", "coordinates": [ 29.760993771793039, 59.991269929694099 ] } },
{ "type": "Feature", "properties": { "addr:housenumber": "8 к2", "addr:street": "улица Сургина", "data_residents_sum": 125.0, "xcoord": 29.75932485, "ycoord": 59.9917816 }, "geometry": { "type": "Point", "coordinates": [ 29.75932485, 59.99178160000001 ] } },
{ "type": "Feature", "properties": { "addr:housenumber": "48", "addr:street": "Посадская улица", "data_residents_sum": 68.0, "xcoord": 29.758660717726663, "ycoord": 59.992038775864366 }, "geometry": { "type": "Point", "coordinates": [ 29.758660717726663, 59.992038775864366 ] } },
{ "type": "Feature", "properties": { "addr:housenumber": "43", "addr:street": "проспект Ленина", "data_residents_sum": 47.0, "xcoord": 29.762342975380502, "ycoord": 59.992961251623491 }, "geometry": { "type": "Point", "coordinates": [ 29.762342975380502, 59.992961251623491 ] } },
{ "type": "Feature", "properties": { "addr:housenumber": "10", "addr:street": "улица Сургина", "data_residents_sum": 245.0, "xcoord": 29.758931139448208, "ycoord": 59.99229972420757 }, "geometry": { "type": "Point", "coordinates": [ 29.758931139448208, 59.99229972420757 ] } },
{ "type": "Feature", "properties": { "addr:housenumber": "45", "addr:street": "проспект Ленина", "data_residents_sum": 29.0, "xcoord": 29.761966341083806, "ycoord": 59.992624908037769 }, "geometry": { "type": "Point", "coordinates": [ 29.761966341083806, 59.992624908037769 ] } },
{ "type": "Feature", "properties": { "addr:housenumber": "40", "addr:street": "Посадская улица", "data_residents_sum": 28.0, "xcoord": 29.75988993451341, "ycoord": 59.993378100801607 }, "geometry": { "type": "Point", "coordinates": [ 29.75988993451341, 59.993378100801607 ] } },
{ "type": "Feature", "properties": { "addr:housenumber": "13", "addr:street": "улица Мартынова", "data_residents_sum": 22.0, "xcoord": 29.75830745, "ycoord": 59.99132555 }, "geometry": { "type": "Point", "coordinates": [ 29.75830745, 59.99132555 ] } },
{ "type": "Feature", "properties": { "addr:housenumber": "14", "addr:street": "улица Велещинского", "data_residents_sum": 87.0, "xcoord": 29.760733613275598, "ycoord": 59.993636665452492 }, "geometry": { "type": "Point", "coordinates": [ 29.760733613275598, 59.993636665452492 ] } },
{ "type": "Feature", "properties": { "addr:housenumber": "9", "addr:street": "улица Сургина", "data_residents_sum": 13.0, "xcoord": 29.76035999837671, "ycoord": 59.992382861786425 }, "geometry": { "type": "Point", "coordinates": [ 29.76035999837671, 59.992382861786425 ] } },
{ "type": "Feature", "properties": { "addr:housenumber": "38", "addr:street": "Посадская улица", "data_residents_sum": 30.0, "xcoord": 29.76009107759857, "ycoord": 59.993707419987103 }, "geometry": { "type": "Point", "coordinates": [ 29.76009107759857, 59.993707419987103 ] } },
{ "type": "Feature", "properties": { "addr:housenumber": "15\/44", "addr:street": "улица Сургина", "data_residents_sum": 93.0, "xcoord": 29.75926319941701, "ycoord": 59.992797293425433 }, "geometry": { "type": "Point", "coordinates": [ 29.75926319941701, 59.992797293425433 ] } },
{ "type": "Feature", "properties": { "addr:housenumber": "8", "addr:street": "улица Сургина", "data_residents_sum": 153.0, "xcoord": 29.759721483761062, "ycoord": 59.992183199782851 }, "geometry": { "type": "Point", "coordinates": [ 29.759721483761062, 59.992183199782851 ] } },
{ "type": "Feature", "properties": { "addr:housenumber": "41\/6", "addr:street": "проспект Ленина", "data_residents_sum": 295.0, "xcoord": 29.76242727228459, "ycoord": 59.993273430854401 }, "geometry": { "type": "Point", "coordinates": [ 29.76242727228459, 59.993273430854401 ] } },
{ "type": "Feature", "properties": { "addr:housenumber": "11", "addr:street": "улица Сургина", "data_residents_sum": 49.0, "xcoord": 29.760017253458429, "ycoord": 59.99247249959717 }, "geometry": { "type": "Point", "coordinates": [ 29.760017253458429, 59.99247249959717 ] } },
{ "type": "Feature", "properties": { "addr:housenumber": "49", "addr:street": "проспект Ленина", "data_residents_sum": 151.0, "xcoord": 29.761575613488844, "ycoord": 59.992158523466678 }, "geometry": { "type": "Point", "coordinates": [ 29.761575613488844, 59.992158523466678 ] } },
{ "type": "Feature", "properties": { "addr:housenumber": "42 к1", "addr:street": "Посадская улица", "data_residents_sum": 110.0, "xcoord": 29.760493310488414, "ycoord": 59.993097233850527 }, "geometry": { "type": "Point", "coordinates": [ 29.760493310488414, 59.993097233850527 ] } },
{ "type": "Feature", "properties": { "addr:housenumber": "42 к2", "addr:street": "Посадская улица", "data_residents_sum": 149.0, "xcoord": 29.76121873916685, "ycoord": 59.992953365699449 }, "geometry": { "type": "Point", "coordinates": [ 29.76121873916685, 59.992953365699449 ] } },
{ "type": "Feature", "properties": { "addr:housenumber": "10", "addr:street": "проспект Ленина", "data_residents_sum": 7.0, "xcoord": 29.767897557343343, "ycoord": 59.998425200294591 }, "geometry": { "type": "Point", "coordinates": [ 29.767897557343343, 59.998425200294591 ] } },
{ "type": "Feature", "properties": { "addr:housenumber": "24", "addr:street": "проспект Ленина", "data_residents_sum": 281.0, "xcoord": 29.76412826078554, "ycoord": 59.993779798598787 }, "geometry": { "type": "Point", "coordinates": [ 29.76412826078554, 59.993779798598787 ] } },
{ "type": "Feature", "properties": { "addr:housenumber": "17", "addr:street": "улица Карла Маркса", "data_residents_sum": 16.0, "xcoord": 29.764822360424798, "ycoord": 59.993508117973967 }, "geometry": { "type": "Point", "coordinates": [ 29.764822360424798, 59.993508117973967 ] } },
{ "type": "Feature", "properties": { "addr:housenumber": null, "addr:street": null, "data_residents_sum": 23.0, "xcoord": 29.767510637011718, "ycoord": 59.997773883094872 }, "geometry": { "type": "Point", "coordinates": [ 29.767510637011718, 59.997773883094872 ] } },
{ "type": "Feature", "properties": { "addr:housenumber": "25", "addr:street": "улица Карла Маркса", "data_residents_sum": 45.0, "xcoord": 29.763658047514387, "ycoord": 59.992169819818812 }, "geometry": { "type": "Point", "coordinates": [ 29.763658047514387, 59.992169819818812 ] } },
{ "type": "Feature", "properties": { "addr:housenumber": "16\/11", "addr:street": "Флотская улица", "data_residents_sum": 148.0, "xcoord": 29.768285222736363, "ycoord": 59.997785975920763 }, "geometry": { "type": "Point", "coordinates": [ 29.768285222736363, 59.997785975920763 ] } },
{ "type": "Feature", "properties": { "addr:housenumber": "1\/33", "addr:street": "улица Мартынова", "data_residents_sum": 183.0, "xcoord": 29.762156920883644, "ycoord": 59.990561153154346 }, "geometry": { "type": "Point", "coordinates": [ 29.762156920883644, 59.990561153154346 ] } },
{ "type": "Feature", "properties": { "addr:housenumber": "29\/9", "addr:street": "Флотская улица", "data_residents_sum": 17.0, "xcoord": 29.76850679766709, "ycoord": 59.998290405841971 }, "geometry": { "type": "Point", "coordinates": [ 29.76850679766709, 59.998290405841971 ] } },
{ "type": "Feature", "properties": { "addr:housenumber": "28", "addr:street": "проспект Ленина", "data_residents_sum": 146.0, "xcoord": 29.763364614850474, "ycoord": 59.992991036138896 }, "geometry": { "type": "Point", "coordinates": [ 29.763364614850474, 59.992991036138896 ] } },
{ "type": "Feature", "properties": { "addr:housenumber": "8", "addr:street": "проспект Ленина", "data_residents_sum": 80.0, "xcoord": 29.768639544588407, "ycoord": 59.998770688187463 }, "geometry": { "type": "Point", "coordinates": [ 29.768639544588407, 59.998770688187463 ] } },
{ "type": "Feature", "properties": { "addr:housenumber": null, "addr:street": null, "data_residents_sum": 151.0, "xcoord": 29.765424876831105, "ycoord": 59.994328586575982 }, "geometry": { "type": "Point", "coordinates": [ 29.765424876831105, 59.994328586575982 ] } },
{ "type": "Feature", "properties": { "addr:housenumber": "38", "addr:street": "проспект Ленина", "data_residents_sum": 22.0, "xcoord": 29.761825437866737, "ycoord": 59.991125504386588 }, "geometry": { "type": "Point", "coordinates": [ 29.761825437866737, 59.991125504386588 ] } },
{ "type": "Feature", "properties": { "addr:housenumber": "32", "addr:street": "проспект Ленина", "data_residents_sum": 19.0, "xcoord": 29.762927384349176, "ycoord": 59.992409310034304 }, "geometry": { "type": "Point", "coordinates": [ 29.762927384349176, 59.992409310034304 ] } },
{ "type": "Feature", "properties": { "addr:housenumber": "21", "addr:street": "улица Карла Маркса", "data_residents_sum": 73.0, "xcoord": 29.764203813734031, "ycoord": 59.992828790805973 }, "geometry": { "type": "Point", "coordinates": [ 29.764203813734031, 59.992828790805973 ] } },
{ "type": "Feature", "properties": { "addr:housenumber": "26", "addr:street": "проспект Ленина", "data_residents_sum": 372.0, "xcoord": 29.764143050872928, "ycoord": 59.993234709681246 }, "geometry": { "type": "Point", "coordinates": [ 29.764143050872928, 59.993234709681246 ] } },
{ "type": "Feature", "properties": { "addr:housenumber": "30", "addr:street": "проспект Ленина", "data_residents_sum": 41.0, "xcoord": 29.763536810827748, "ycoord": 59.992616953183273 }, "geometry": { "type": "Point", "coordinates": [ 29.763536810827748, 59.992616953183273 ] } },
{ "type": "Feature", "properties": { "addr:housenumber": "15", "addr:street": "Флотская улица", "data_residents_sum": 147.0, "xcoord": 29.77420835, "ycoord": 59.99716655 }, "geometry": { "type": "Point", "coordinates": [ 29.77420835, 59.99716655 ] } },
{ "type": "Feature", "properties": { "addr:housenumber": "1", "addr:street": "Флотская улица", "data_residents_sum": 84.0, "xcoord": 29.777994800701137, "ycoord": 59.996346083131307 }, "geometry": { "type": "Point", "coordinates": [ 29.777994800701137, 59.996346083131307 ] } },
{ "type": "Feature", "properties": { "addr:housenumber": "5", "addr:street": "Кронштадтская улица", "data_residents_sum": 65.0, "xcoord": 29.7716825, "ycoord": 59.99866335 }, "geometry": { "type": "Point", "coordinates": [ 29.7716825, 59.99866335 ] } },
{ "type": "Feature", "properties": { "addr:housenumber": "1\/58", "addr:street": "Никольский переулок", "data_residents_sum": 402.0, "xcoord": 29.774601384776833, "ycoord": 59.997683110561979 }, "geometry": { "type": "Point", "coordinates": [ 29.774601384776833, 59.997683110561979 ] } },
{ "type": "Feature", "properties": { "addr:housenumber": "1\/66", "addr:street": "Кронштадтская улица", "data_residents_sum": 43.0, "xcoord": 29.773186936844521, "ycoord": 59.998347463690571 }, "geometry": { "type": "Point", "coordinates": [ 29.773186936844521, 59.998347463690571 ] } },
{ "type": "Feature", "properties": { "addr:housenumber": "2\/56", "addr:street": "Никольский переулок", "data_residents_sum": 67.0, "xcoord": 29.775134933917425, "ycoord": 59.997618940625259 }, "geometry": { "type": "Point", "coordinates": [ 29.775134933917425, 59.997618940625259 ] } },
{ "type": "Feature", "properties": { "addr:housenumber": "76", "addr:street": "улица Восстания", "data_residents_sum": 62.0, "xcoord": 29.770895722901614, "ycoord": 59.999718301177857 }, "geometry": { "type": "Point", "coordinates": [ 29.770895722901614, 59.999718301177857 ] } },
{ "type": "Feature", "properties": { "addr:housenumber": "3", "addr:street": "Кронштадтская улица", "data_residents_sum": 136.0, "xcoord": 29.77251835, "ycoord": 59.9984763 }, "geometry": { "type": "Point", "coordinates": [ 29.77251835, 59.9984763 ] } },
{ "type": "Feature", "properties": { "addr:housenumber": "19", "addr:street": "Владимирская улица", "data_residents_sum": 29.0, "xcoord": 29.772507575222601, "ycoord": 59.997941772819431 }, "geometry": { "type": "Point", "coordinates": [ 29.772507575222601, 59.997941772819431 ] } },
{ "type": "Feature", "properties": { "addr:housenumber": "7", "addr:street": "Флотская улица", "data_residents_sum": 102.0, "xcoord": 29.7755086, "ycoord": 59.9968349 }, "geometry": { "type": "Point", "coordinates": [ 29.7755086, 59.9968349 ] } },
{ "type": "Feature", "properties": { "addr:housenumber": "72А", "addr:street": "улица Восстания", "data_residents_sum": 548.0, "xcoord": 29.772428274904769, "ycoord": 59.999052788851856 }, "geometry": { "type": "Point", "coordinates": [ 29.772428274904769, 59.999052788851856 ] } },
{ "type": "Feature", "properties": { "addr:housenumber": "5", "addr:street": "Флотская улица", "data_residents_sum": 43.0, "xcoord": 29.776671345896162, "ycoord": 59.996730874600388 }, "geometry": { "type": "Point", "coordinates": [ 29.776671345896162, 59.996730874600388 ] } },
{ "type": "Feature", "properties": { "addr:housenumber": "25", "addr:street": "Флотская улица", "data_residents_sum": 15.0, "xcoord": 29.770144036079969, "ycoord": 59.997934050645789 }, "geometry": { "type": "Point", "coordinates": [ 29.770144036079969, 59.997934050645789 ] } },
{ "type": "Feature", "properties": { "addr:housenumber": "74", "addr:street": "улица Восстания", "data_residents_sum": 118.0, "xcoord": 29.7716564, "ycoord": 59.9994571 }, "geometry": { "type": "Point", "coordinates": [ 29.7716564, 59.9994571 ] } },
{ "type": "Feature", "properties": { "addr:housenumber": "9", "addr:street": "Кронштадтская улица", "data_residents_sum": 144.0, "xcoord": 29.77093235, "ycoord": 59.998793350000014 }, "geometry": { "type": "Point", "coordinates": [ 29.77093235, 59.998793350000014 ] } },
{ "type": "Feature", "properties": { "addr:housenumber": "23", "addr:street": "Флотская улица", "data_residents_sum": 180.0, "xcoord": 29.770684802942487, "ycoord": 59.99782369931026 }, "geometry": { "type": "Point", "coordinates": [ 29.770684802942487, 59.99782369931026 ] } },
{ "type": "Feature", "properties": { "addr:housenumber": "25", "addr:street": "Владимирская улица", "data_residents_sum": 230.0, "xcoord": 29.771547296755241, "ycoord": 59.998109023151336 }, "geometry": { "type": "Point", "coordinates": [ 29.771547296755241, 59.998109023151336 ] } },
{ "type": "Feature", "properties": { "addr:housenumber": "3", "addr:street": "Флотская улица", "data_residents_sum": 76.0, "xcoord": 29.7772472, "ycoord": 59.9964958 }, "geometry": { "type": "Point", "coordinates": [ 29.7772472, 59.9964958 ] } },
{ "type": "Feature", "properties": { "addr:housenumber": "4\/11", "addr:street": "улица Карла Маркса", "data_residents_sum": 196.0, "xcoord": 29.770305045964065, "ycoord": 59.999246683700164 }, "geometry": { "type": "Point", "coordinates": [ 29.770305045964065, 59.999246683700164 ] } },
{ "type": "Feature", "properties": { "addr:housenumber": "13", "addr:street": "Флотская улица", "data_residents_sum": 128.0, "xcoord": 29.774795108300911, "ycoord": 59.996995882286122 }, "geometry": { "type": "Point", "coordinates": [ 29.774795108300911, 59.996995882286122 ] } },
{ "type": "Feature", "properties": { "addr:housenumber": "64", "addr:street": "улица Восстания", "data_residents_sum": 178.0, "xcoord": 29.77422145, "ycoord": 59.9982017 }, "geometry": { "type": "Point", "coordinates": [ 29.77422145, 59.9982017 ] } },
{ "type": "Feature", "properties": { "addr:housenumber": "10", "addr:street": "Кронштадтская улица", "data_residents_sum": 195.0, "xcoord": 29.771383868936095, "ycoord": 59.998373395195287 }, "geometry": { "type": "Point", "coordinates": [ 29.771383868936095, 59.998373395195287 ] } },
{ "type": "Feature", "properties": { "addr:housenumber": "12А", "addr:street": "Флотская улица", "data_residents_sum": 302.0, "xcoord": 29.77076335, "ycoord": 59.9972816 }, "geometry": { "type": "Point", "coordinates": [ 29.77076335, 59.9972816 ] } },
{ "type": "Feature", "properties": { "addr:housenumber": "33", "addr:street": "Советская улица", "data_residents_sum": 51.0, "xcoord": 29.7784910717474, "ycoord": 59.993664445502205 }, "geometry": { "type": "Point", "coordinates": [ 29.7784910717474, 59.993664445502205 ] } },
{ "type": "Feature", "properties": { "addr:housenumber": "17", "addr:street": "улица Карла Либкнехта", "data_residents_sum": 55.0, "xcoord": 29.78088005, "ycoord": 59.9938416 }, "geometry": { "type": "Point", "coordinates": [ 29.78088005, 59.9938416 ] } },
{ "type": "Feature", "properties": { "addr:housenumber": "15А", "addr:street": "улица Карла Либкнехта", "data_residents_sum": 175.0, "xcoord": 29.783423899141855, "ycoord": 59.993457972612219 }, "geometry": { "type": "Point", "coordinates": [ 29.783423899141855, 59.993457972612219 ] } },
{ "type": "Feature", "properties": { "addr:housenumber": "33", "addr:street": "Советская улица", "data_residents_sum": 160.0, "xcoord": 29.778667453408563, "ycoord": 59.993464314201418 }, "geometry": { "type": "Point", "coordinates": [ 29.778667453408563, 59.993464314201418 ] } },
{ "type": "Feature", "properties": { "addr:housenumber": "27", "addr:street": "улица Карла Либкнехта", "data_residents_sum": 72.0, "xcoord": 29.779336439520094, "ycoord": 59.994362902329527 }, "geometry": { "type": "Point", "coordinates": [ 29.779336439520094, 59.994362902329527 ] } },
{ "type": "Feature", "properties": { "addr:housenumber": "29", "addr:street": "улица Карла Либкнехта", "data_residents_sum": 99.0, "xcoord": 29.77895815, "ycoord": 59.994224 }, "geometry": { "type": "Point", "coordinates": [ 29.77895815, 59.994224 ] } },
{ "type": "Feature", "properties": { "addr:housenumber": "25", "addr:street": "Советская улица", "data_residents_sum": 95.0, "xcoord": 29.780391014187035, "ycoord": 59.993179803380414 }, "geometry": { "type": "Point", "coordinates": [ 29.780391014187035, 59.993179803380414 ] } },
{ "type": "Feature", "properties": { "addr:housenumber": "10", "addr:street": "Широкая улица", "data_residents_sum": 52.0, "xcoord": 29.7804705, "ycoord": 59.99442405 }, "geometry": { "type": "Point", "coordinates": [ 29.7804705, 59.99442405 ] } },
{ "type": "Feature", "properties": { "addr:housenumber": "25", "addr:street": "улица Карла Либкнехта", "data_residents_sum": 146.0, "xcoord": 29.77995945, "ycoord": 59.99423285 }, "geometry": { "type": "Point", "coordinates": [ 29.77995945, 59.99423285 ] } },
{ "type": "Feature", "properties": { "addr:housenumber": "15Б", "addr:street": "улица Карла Либкнехта", "data_residents_sum": 116.0, "xcoord": 29.78234235, "ycoord": 59.99345955 }, "geometry": { "type": "Point", "coordinates": [ 29.78234235, 59.99345955 ] } },
{ "type": "Feature", "properties": { "addr:housenumber": "4", "addr:street": "Широкая улица", "data_residents_sum": 281.0, "xcoord": 29.782423916554517, "ycoord": 59.994029557696933 }, "geometry": { "type": "Point", "coordinates": [ 29.782423916554517, 59.994029557696933 ] } },
{ "type": "Feature", "properties": { "addr:housenumber": "8", "addr:street": "Широкая улица", "data_residents_sum": 200.0, "xcoord": 29.781350270648907, "ycoord": 59.994538991161612 }, "geometry": { "type": "Point", "coordinates": [ 29.781350270648907, 59.994538991161612 ] } },
{ "type": "Feature", "properties": { "addr:housenumber": "27", "addr:street": "Советская улица", "data_residents_sum": 257.0, "xcoord": 29.779786262483597, "ycoord": 59.993238747516408 }, "geometry": { "type": "Point", "coordinates": [ 29.779786262483597, 59.993238747516408 ] } },
{ "type": "Feature", "properties": { "addr:housenumber": "13", "addr:street": "Советская улица", "data_residents_sum": 96.0, "xcoord": 29.7829086566101, "ycoord": 59.992646748279775 }, "geometry": { "type": "Point", "coordinates": [ 29.7829086566101, 59.992646748279775 ] } },
{ "type": "Feature", "properties": { "addr:housenumber": "30", "addr:street": "улица Карла Либкнехта", "data_residents_sum": 263.0, "xcoord": 29.780011113043468, "ycoord": 59.993602806282283 }, "geometry": { "type": "Point", "coordinates": [ 29.780011113043468, 59.993602806282283 ] } },
{ "type": "Feature", "properties": { "addr:housenumber": "2\/5", "addr:street": "Широкая улица", "data_residents_sum": 106.0, "xcoord": 29.783473738130176, "ycoord": 59.994066009070458 }, "geometry": { "type": "Point", "coordinates": [ 29.783473738130176, 59.994066009070458 ] } },
{ "type": "Feature", "properties": { "addr:housenumber": "21А", "addr:street": "Советская улица", "data_residents_sum": 30.0, "xcoord": 29.780869375957408, "ycoord": 59.993007333550011 }, "geometry": { "type": "Point", "coordinates": [ 29.780869375957408, 59.993007333550011 ] } },
{ "type": "Feature", "properties": { "addr:housenumber": null, "addr:street": null, "data_residents_sum": 175.0, "xcoord": 29.779187233676552, "ycoord": 59.993345649833088 }, "geometry": { "type": "Point", "coordinates": [ 29.779187233676552, 59.993345649833088 ] } },
{ "type": "Feature", "properties": { "addr:housenumber": "24", "addr:street": "улица Карла Либкнехта", "data_residents_sum": 40.0, "xcoord": 29.783296349421256, "ycoord": 59.99297724534096 }, "geometry": { "type": "Point", "coordinates": [ 29.783296349421256, 59.99297724534096 ] } },
{ "type": "Feature", "properties": { "addr:housenumber": "15", "addr:street": "Советская улица", "data_residents_sum": 142.0, "xcoord": 29.782352251716961, "ycoord": 59.992845099603926 }, "geometry": { "type": "Point", "coordinates": [ 29.782352251716961, 59.992845099603926 ] } },
{ "type": "Feature", "properties": { "addr:housenumber": "21Б", "addr:street": "Советская улица", "data_residents_sum": 42.0, "xcoord": 29.7811713, "ycoord": 59.9933431 }, "geometry": { "type": "Point", "coordinates": [ 29.7811713, 59.9933431 ] } },
{ "type": "Feature", "properties": { "addr:housenumber": "6", "addr:street": "Широкая улица", "data_residents_sum": 160.0, "xcoord": 29.781804966214782, "ycoord": 59.994155358321606 }, "geometry": { "type": "Point", "coordinates": [ 29.781804966214782, 59.994155358321606 ] } },
{ "type": "Feature", "properties": { "addr:housenumber": "18", "addr:street": "улица Восстания", "data_residents_sum": 231.0, "xcoord": 29.78709185, "ycoord": 59.99371435 }, "geometry": { "type": "Point", "coordinates": [ 29.78709185, 59.99371435 ] } },
{ "type": "Feature", "properties": { "addr:housenumber": "7", "addr:street": "Советская улица", "data_residents_sum": 151.0, "xcoord": 29.785423593346305, "ycoord": 59.992134505089062 }, "geometry": { "type": "Point", "coordinates": [ 29.785423593346305, 59.992134505089062 ] } },
{ "type": "Feature", "properties": { "addr:housenumber": "12", "addr:street": "улица Гусева", "data_residents_sum": 29.0, "xcoord": 29.785542464344513, "ycoord": 59.99312554300549 }, "geometry": { "type": "Point", "coordinates": [ 29.785542464344513, 59.99312554300549 ] } },
{ "type": "Feature", "properties": { "addr:housenumber": "3", "addr:street": "Советская улица", "data_residents_sum": 135.0, "xcoord": 29.786567735143006, "ycoord": 59.99187715994421 }, "geometry": { "type": "Point", "coordinates": [ 29.786567735143006, 59.99187715994421 ] } },
{ "type": "Feature", "properties": { "addr:housenumber": "1\/16", "addr:street": "улица Комсомола", "data_residents_sum": 521.0, "xcoord": 29.788229912365399, "ycoord": 59.993157585102502 }, "geometry": { "type": "Point", "coordinates": [ 29.788229912365399, 59.993157585102502 ] } },
{ "type": "Feature", "properties": { "addr:housenumber": "2", "addr:street": "улица Гусева", "data_residents_sum": 149.0, "xcoord": 29.7876236, "ycoord": 59.9924048 }, "geometry": { "type": "Point", "coordinates": [ 29.7876236, 59.9924048 ] } },
{ "type": "Feature", "properties": { "addr:housenumber": null, "addr:street": null, "data_residents_sum": 75.0, "xcoord": 29.783156302245125, "ycoord": 59.994779667769819 }, "geometry": { "type": "Point", "coordinates": [ 29.783156302245125, 59.994779667769819 ] } },
{ "type": "Feature", "properties": { "addr:housenumber": "20", "addr:street": "улица Восстания", "data_residents_sum": 39.0, "xcoord": 29.786692917742521, "ycoord": 59.993839417511751 }, "geometry": { "type": "Point", "coordinates": [ 29.786692917742521, 59.993839417511751 ] } },
{ "type": "Feature", "properties": { "addr:housenumber": "4", "addr:street": "улица Гусева", "data_residents_sum": 40.0, "xcoord": 29.787322415815353, "ycoord": 59.992741649979493 }, "geometry": { "type": "Point", "coordinates": [ 29.787322415815353, 59.992741649979493 ] } },
{ "type": "Feature", "properties": { "addr:housenumber": "12", "addr:street": "Осокина улица", "data_residents_sum": 82.0, "xcoord": 29.784241101118944, "ycoord": 59.992373736692933 }, "geometry": { "type": "Point", "coordinates": [ 29.784241101118944, 59.992373736692933 ] } },
{ "type": "Feature", "properties": { "addr:housenumber": "5", "addr:street": "Советская улица", "data_residents_sum": 149.0, "xcoord": 29.786032518198198, "ycoord": 59.991975509857767 }, "geometry": { "type": "Point", "coordinates": [ 29.786032518198198, 59.991975509857767 ] } },
{ "type": "Feature", "properties": { "addr:housenumber": "9\/4", "addr:street": "улица Гусева", "data_residents_sum": 9.0, "xcoord": 29.78534475, "ycoord": 59.9935791 }, "geometry": { "type": "Point", "coordinates": [ 29.78534475, 59.993579100000012 ] } },
{ "type": "Feature", "properties": { "addr:housenumber": "9", "addr:street": "Советская улица", "data_residents_sum": 94.0, "xcoord": 29.784765106508061, "ycoord": 59.992265817417803 }, "geometry": { "type": "Point", "coordinates": [ 29.784765106508061, 59.992265817417803 ] } },
{ "type": "Feature", "properties": { "addr:housenumber": "6", "addr:street": "улица Гусева", "data_residents_sum": 228.0, "xcoord": 29.786651284043611, "ycoord": 59.992902899680573 }, "geometry": { "type": "Point", "coordinates": [ 29.786651284043611, 59.992902899680573 ] } },
{ "type": "Feature", "properties": { "addr:housenumber": "10", "addr:street": "Осокина улица", "data_residents_sum": 87.0, "xcoord": 29.784579878232929, "ycoord": 59.992788321703706 }, "geometry": { "type": "Point", "coordinates": [ 29.784579878232929, 59.992788321703706 ] } },
{ "type": "Feature", "properties": { "addr:housenumber": "26", "addr:street": "улица Восстания", "data_residents_sum": 32.0, "xcoord": 29.784105818760441, "ycoord": 59.994613703567616 }, "geometry": { "type": "Point", "coordinates": [ 29.784105818760441, 59.994613703567616 ] } },
{ "type": "Feature", "properties": { "addr:housenumber": "22", "addr:street": "улица Восстания", "data_residents_sum": 38.0, "xcoord": 29.785898389990169, "ycoord": 59.994063096384266 }, "geometry": { "type": "Point", "coordinates": [ 29.785898389990169, 59.994063096384266 ] } },
{ "type": "Feature", "properties": { "addr:housenumber": "5", "addr:street": "Широкая улица", "data_residents_sum": 63.0, "xcoord": 29.783728017069443, "ycoord": 59.99436108342983 }, "geometry": { "type": "Point", "coordinates": [ 29.783728017069443, 59.99436108342983 ] } },
{ "type": "Feature", "properties": { "addr:housenumber": "16", "addr:street": "улица Восстания", "data_residents_sum": 133.0, "xcoord": 29.787772184719742, "ycoord": 59.993529014004977 }, "geometry": { "type": "Point", "coordinates": [ 29.787772184719742, 59.993529014004977 ] } },
{ "type": "Feature", "properties": { "addr:housenumber": "1\/5", "addr:street": "Советская улица", "data_residents_sum": 136.0, "xcoord": 29.78716440374032, "ycoord": 59.991882102212806 }, "geometry": { "type": "Point", "coordinates": [ 29.78716440374032, 59.991882102212806 ] } },
{ "type": "Feature", "properties": { "addr:housenumber": "11", "addr:street": "улица Гусева", "data_residents_sum": 344.0, "xcoord": 29.784507479394069, "ycoord": 59.993618584065011 }, "geometry": { "type": "Point", "coordinates": [ 29.784507479394069, 59.993618584065011 ] } },
{ "type": "Feature", "properties": { "addr:housenumber": "1", "addr:street": "улица Гусева", "data_residents_sum": 25.0, "xcoord": 29.7875853, "ycoord": 59.9930264 }, "geometry": { "type": "Point", "coordinates": [ 29.7875853, 59.9930264 ] } },
{ "type": "Feature", "properties": { "addr:housenumber": "5", "addr:street": "улица Гусева", "data_residents_sum": 100.0, "xcoord": 29.7862639, "ycoord": 59.99343175 }, "geometry": { "type": "Point", "coordinates": [ 29.7862639, 59.99343175 ] } },
{ "type": "Feature", "properties": { "addr:housenumber": "7", "addr:street": "Широкая улица", "data_residents_sum": 17.0, "xcoord": 29.78314362542768, "ycoord": 59.994482531734512 }, "geometry": { "type": "Point", "coordinates": [ 29.78314362542768, 59.994482531734512 ] } },
{ "type": "Feature", "properties": { "addr:housenumber": "5", "addr:street": "улица Мануильского", "data_residents_sum": 28.0, "xcoord": 29.792061151927758, "ycoord": 59.991432581308203 }, "geometry": { "type": "Point", "coordinates": [ 29.792061151927758, 59.991432581308203 ] } },
{ "type": "Feature", "properties": { "addr:housenumber": "18", "addr:street": "Пролетарская улица", "data_residents_sum": 21.0, "xcoord": 29.790536080085726, "ycoord": 59.991633136411885 }, "geometry": { "type": "Point", "coordinates": [ 29.790536080085726, 59.991633136411885 ] } },
{ "type": "Feature", "properties": { "addr:housenumber": "17", "addr:street": "Пролетарская улица", "data_residents_sum": 220.0, "xcoord": 29.789067793455555, "ycoord": 59.990876711415787 }, "geometry": { "type": "Point", "coordinates": [ 29.789067793455555, 59.990876711415787 ] } },
{ "type": "Feature", "properties": { "addr:housenumber": "9", "addr:street": "улица Мануильского", "data_residents_sum": 102.0, "xcoord": 29.791628103881827, "ycoord": 59.990872434215582 }, "geometry": { "type": "Point", "coordinates": [ 29.791628103881827, 59.990872434215582 ] } },
{ "type": "Feature", "properties": { "addr:housenumber": "4", "addr:street": "улица Аммермана", "data_residents_sum": 24.0, "xcoord": 29.789431244959609, "ycoord": 59.991666797882878 }, "geometry": { "type": "Point", "coordinates": [ 29.789431244959609, 59.991666797882878 ] } },
{ "type": "Feature", "properties": { "addr:housenumber": "22", "addr:street": "улица Аммермана", "data_residents_sum": 225.0, "xcoord": 29.789177418739275, "ycoord": 59.99135849528593 }, "geometry": { "type": "Point", "coordinates": [ 29.789177418739275, 59.99135849528593 ] } },
{ "type": "Feature", "properties": { "addr:housenumber": "3", "addr:street": "улица Мануильского", "data_residents_sum": 307.0, "xcoord": 29.791407044017664, "ycoord": 59.991748691269791 }, "geometry": { "type": "Point", "coordinates": [ 29.791407044017664, 59.991748691269791 ] } },
{ "type": "Feature", "properties": { "addr:housenumber": "1\/8", "addr:street": "улица Мануильского", "data_residents_sum": 696.0, "xcoord": 29.791984833263186, "ycoord": 59.991871548991419 }, "geometry": { "type": "Point", "coordinates": [ 29.791984833263186, 59.991871548991419 ] } },
{ "type": "Feature", "properties": { "addr:housenumber": "1\/8", "addr:street": "улица Мануильского", "data_residents_sum": 201.0, "xcoord": 29.79216856605559, "ycoord": 59.99216289606612 }, "geometry": { "type": "Point", "coordinates": [ 29.79216856605559, 59.99216289606612 ] } },
{ "type": "Feature", "properties": { "addr:housenumber": "7\/22", "addr:street": "Интернациональная улица", "data_residents_sum": 634.0, "xcoord": 29.790039411576803, "ycoord": 59.990691556411186 }, "geometry": { "type": "Point", "coordinates": [ 29.790039411576803, 59.990691556411186 ] } },
{ "type": "Feature", "properties": { "addr:housenumber": "2", "addr:street": "улица Аммермана", "data_residents_sum": 391.0, "xcoord": 29.790133396481657, "ycoord": 59.992479445342319 }, "geometry": { "type": "Point", "coordinates": [ 29.790133396481657, 59.992479445342319 ] } },
{ "type": "Feature", "properties": { "addr:housenumber": "5\/11", "addr:street": "Интернациональная улица", "data_residents_sum": 59.0, "xcoord": 29.791116251453325, "ycoord": 59.990462781146086 }, "geometry": { "type": "Point", "coordinates": [ 29.791116251453325, 59.990462781146086 ] } },
{ "type": "Feature", "properties": { "addr:housenumber": "7", "addr:street": "улица Мануильского", "data_residents_sum": 42.0, "xcoord": 29.791011385454876, "ycoord": 59.991223361347451 }, "geometry": { "type": "Point", "coordinates": [ 29.791011385454876, 59.991223361347451 ] } },
{ "type": "Feature", "properties": { "addr:housenumber": "17", "addr:street": "улица Аммермана", "data_residents_sum": 51.0, "xcoord": 29.787358518205881, "ycoord": 59.990191851156503 }, "geometry": { "type": "Point", "coordinates": [ 29.787358518205881, 59.990191851156503 ] } },
{ "type": "Feature", "properties": { "addr:housenumber": "31", "addr:street": "улица Аммермана", "data_residents_sum": 191.0, "xcoord": 29.784800745943119, "ycoord": 59.98685597102822 }, "geometry": { "type": "Point", "coordinates": [ 29.784800745943119, 59.98685597102822 ] } },
{ "type": "Feature", "properties": { "addr:housenumber": "27", "addr:street": "улица Аммермана", "data_residents_sum": 43.0, "xcoord": 29.785394830344448, "ycoord": 59.987519015584127 }, "geometry": { "type": "Point", "coordinates": [ 29.785394830344448, 59.987519015584127 ] } },
{ "type": "Feature", "properties": { "addr:housenumber": "8", "addr:street": "улица Аммермана", "data_residents_sum": 32.0, "xcoord": 29.785089857602742, "ycoord": 59.987182136428203 }, "geometry": { "type": "Point", "coordinates": [ 29.785089857602742, 59.987182136428203 ] } },
{ "type": "Feature", "properties": { "addr:housenumber": "15\/10", "addr:street": "улица Аммермана", "data_residents_sum": 83.0, "xcoord": 29.787727502835189, "ycoord": 59.990711109191281 }, "geometry": { "type": "Point", "coordinates": [ 29.787727502835189, 59.990711109191281 ] } },
{ "type": "Feature", "properties": { "addr:housenumber": "31", "addr:street": "улица Аммермана", "data_residents_sum": 105.0, "xcoord": 29.784317291633631, "ycoord": 59.987049901310321 }, "geometry": { "type": "Point", "coordinates": [ 29.784317291633631, 59.987049901310321 ] } },
{ "type": "Feature", "properties": { "addr:housenumber": "25", "addr:street": "улица Аммермана", "data_residents_sum": 61.0, "xcoord": 29.785761141688862, "ycoord": 59.987998942759681 }, "geometry": { "type": "Point", "coordinates": [ 29.785761141688862, 59.987998942759681 ] } },
{ "type": "Feature", "properties": { "addr:housenumber": "32\/2", "addr:street": "Пролетарская улица", "data_residents_sum": 320.0, "xcoord": 29.789084142900872, "ycoord": 59.989307298594156 }, "geometry": { "type": "Point", "coordinates": [ 29.789084142900872, 59.989307298594156 ] } },
{ "type": "Feature", "properties": { "addr:housenumber": "26", "addr:street": "улица Аммермана", "data_residents_sum": 52.0, "xcoord": 29.788521542531512, "ycoord": 59.990488331125036 }, "geometry": { "type": "Point", "coordinates": [ 29.788521542531512, 59.990488331125036 ] } },
{ "type": "Feature", "properties": { "addr:housenumber": "3", "addr:street": "Ленинградская улица", "data_residents_sum": 71.0, "xcoord": 29.789407464827125, "ycoord": 59.988117943850824 }, "geometry": { "type": "Point", "coordinates": [ 29.789407464827125, 59.988117943850824 ] } },
{ "type": "Feature", "properties": { "addr:housenumber": "34", "addr:street": "Пролетарская улица", "data_residents_sum": 26.0, "xcoord": 29.78851455, "ycoord": 59.98896485 }, "geometry": { "type": "Point", "coordinates": [ 29.78851455, 59.98896485 ] } },
{ "type": "Feature", "properties": { "addr:housenumber": "28", "addr:street": "улица Аммермана", "data_residents_sum": 146.0, "xcoord": 29.788202883430223, "ycoord": 59.989996877046501 }, "geometry": { "type": "Point", "coordinates": [ 29.788202883430223, 59.989996877046501 ] } },
{ "type": "Feature", "properties": { "addr:housenumber": "36", "addr:street": "улица Аммермана", "data_residents_sum": 318.0, "xcoord": 29.787442483556688, "ycoord": 59.98901979219157 }, "geometry": { "type": "Point", "coordinates": [ 29.787442483556688, 59.98901979219157 ] } },
{ "type": "Feature", "properties": { "addr:housenumber": "25", "addr:street": "улица Мануильского", "data_residents_sum": 4.0, "xcoord": 29.790509029450458, "ycoord": 59.988979684213703 }, "geometry": { "type": "Point", "coordinates": [ 29.790509029450458, 59.988979684213703 ] } },
{ "type": "Feature", "properties": { "addr:housenumber": "9", "addr:street": "Ленинградская улица", "data_residents_sum": 96.0, "xcoord": 29.788286492164623, "ycoord": 59.988427765686559 }, "geometry": { "type": "Point", "coordinates": [ 29.788286492164623, 59.988427765686559 ] } },
{ "type": "Feature", "properties": { "addr:housenumber": "6А", "addr:street": "Интернациональная улица", "data_residents_sum": 175.0, "xcoord": 29.789380101845609, "ycoord": 59.990403613780806 }, "geometry": { "type": "Point", "coordinates": [ 29.789380101845609, 59.990403613780806 ] } },
{ "type": "Feature", "properties": { "addr:housenumber": "11\/41", "addr:street": "Ленинградская улица", "data_residents_sum": 148.0, "xcoord": 29.787301702390376, "ycoord": 59.988595667460586 }, "geometry": { "type": "Point", "coordinates": [ 29.787301702390376, 59.988595667460586 ] } },
{ "type": "Feature", "properties": { "addr:housenumber": "41", "addr:street": "улица Мануильского", "data_residents_sum": 74.0, "xcoord": 29.7885626, "ycoord": 59.98657255 }, "geometry": { "type": "Point", "coordinates": [ 29.7885626, 59.98657255 ] } },
{ "type": "Feature", "properties": { "addr:housenumber": "12", "addr:street": "Ленинградская улица", "data_residents_sum": 29.0, "xcoord": 29.786936158944009, "ycoord": 59.988169059519613 }, "geometry": { "type": "Point", "coordinates": [ 29.786936158944009, 59.988169059519613 ] } },
{ "type": "Feature", "properties": { "addr:housenumber": "44", "addr:street": "улица Аммермана", "data_residents_sum": 131.0, "xcoord": 29.786300993464849, "ycoord": 59.987738421581547 }, "geometry": { "type": "Point", "coordinates": [ 29.786300993464849, 59.987738421581547 ] } },
{ "type": "Feature", "properties": { "addr:housenumber": "3", "addr:street": "улица Лебедева", "data_residents_sum": 158.0, "xcoord": 29.78784925671803, "ycoord": 59.986109267672241 }, "geometry": { "type": "Point", "coordinates": [ 29.78784925671803, 59.986109267672241 ] } },
{ "type": "Feature", "properties": { "addr:housenumber": "8", "addr:street": "Ленинградская улица", "data_residents_sum": 16.0, "xcoord": 29.788942629001966, "ycoord": 59.987713670306228 }, "geometry": { "type": "Point", "coordinates": [ 29.788942629001966, 59.987713670306228 ] } },
{ "type": "Feature", "properties": { "addr:housenumber": "37", "addr:street": "улица Мануильского", "data_residents_sum": 180.0, "xcoord": 29.788959000785056, "ycoord": 59.987389376108297 }, "geometry": { "type": "Point", "coordinates": [ 29.788959000785056, 59.987389376108297 ] } },
{ "type": "Feature", "properties": { "addr:housenumber": "5А", "addr:street": "улица Лебедева", "data_residents_sum": 25.0, "xcoord": 29.787063112525413, "ycoord": 59.986784198908751 }, "geometry": { "type": "Point", "coordinates": [ 29.787063112525413, 59.986784198908751 ] } },
{ "type": "Feature", "properties": { "addr:housenumber": null, "addr:street": null, "data_residents_sum": 22.0, "xcoord": 29.783659722325726, "ycoord": 59.995223187649252 }, "geometry": { "type": "Point", "coordinates": [ 29.783659722325726, 59.995223187649252 ] } },
{ "type": "Feature", "properties": { "addr:housenumber": "17", "addr:street": "улица Комсомола", "data_residents_sum": 53.0, "xcoord": 29.7841723, "ycoord": 59.987475 }, "geometry": { "type": "Point", "coordinates": [ 29.7841723, 59.987475 ] } },
{ "type": "Feature", "properties": { "addr:housenumber": "15", "addr:street": "улица Комсомола", "data_residents_sum": 240.0, "xcoord": 29.784528001249399, "ycoord": 59.987937017256961 }, "geometry": { "type": "Point", "coordinates": [ 29.784528001249399, 59.987937017256961 ] } },
{ "type": "Feature", "properties": { "addr:housenumber": "11", "addr:street": "Красная улица", "data_residents_sum": 42.0, "xcoord": 29.77403602131152, "ycoord": 59.98943405107439 }, "geometry": { "type": "Point", "coordinates": [ 29.77403602131152, 59.98943405107439 ] } },
{ "type": "Feature", "properties": { "addr:housenumber": "7", "addr:street": "Красная улица", "data_residents_sum": 143.0, "xcoord": 29.773197764611368, "ycoord": 59.989310550836798 }, "geometry": { "type": "Point", "coordinates": [ 29.773197764611368, 59.989310550836798 ] } },
{ "type": "Feature", "properties": { "addr:housenumber": "5", "addr:street": "Красная улица", "data_residents_sum": 14.0, "xcoord": 29.773270705845981, "ycoord": 59.989104868905123 }, "geometry": { "type": "Point", "coordinates": [ 29.773270705845981, 59.989104868905123 ] } },
{ "type": "Feature", "properties": { "addr:housenumber": "19", "addr:street": "Петровская улица", "data_residents_sum": 31.0, "xcoord": 29.771762121825397, "ycoord": 59.98867330222977 }, "geometry": { "type": "Point", "coordinates": [ 29.771762121825397, 59.98867330222977 ] } },
{ "type": "Feature", "properties": { "addr:housenumber": "17", "addr:street": "Петровская улица", "data_residents_sum": 145.0, "xcoord": 29.772363481433338, "ycoord": 59.988558445216775 }, "geometry": { "type": "Point", "coordinates": [ 29.772363481433338, 59.988558445216775 ] } },
{ "type": "Feature", "properties": { "addr:housenumber": "9", "addr:street": "Красная улица", "data_residents_sum": 202.0, "xcoord": 29.773766787216438, "ycoord": 59.989169827966514 }, "geometry": { "type": "Point", "coordinates": [ 29.773766787216438, 59.989169827966514 ] } },
{ "type": "Feature", "properties": { "addr:housenumber": "13", "addr:street": "Красная улица", "data_residents_sum": 41.0, "xcoord": 29.774146959919005, "ycoord": 59.989721515057553 }, "geometry": { "type": "Point", "coordinates": [ 29.774146959919005, 59.989721515057553 ] } },
{ "type": "Feature", "properties": { "addr:housenumber": "7", "addr:street": "улица Зосимова", "data_residents_sum": 124.0, "xcoord": 29.759082409692432, "ycoord": 59.998134582099127 }, "geometry": { "type": "Point", "coordinates": [ 29.759082409692432, 59.998134582099127 ] } },
{ "type": "Feature", "properties": { "addr:housenumber": "5", "addr:street": "улица Зосимова", "data_residents_sum": 255.0, "xcoord": 29.75972515, "ycoord": 59.9984562 }, "geometry": { "type": "Point", "coordinates": [ 29.75972515, 59.9984562 ] } },
{ "type": "Feature", "properties": { "addr:housenumber": "9", "addr:street": "улица Станюковича", "data_residents_sum": 84.0, "xcoord": 29.720071526951841, "ycoord": 60.010617870524669 }, "geometry": { "type": "Point", "coordinates": [ 29.720071526951841, 60.010617870524669 ] } },
{ "type": "Feature", "properties": { "addr:housenumber": "11", "addr:street": "улица Мартынова", "data_residents_sum": 146.0, "xcoord": 29.758931898818027, "ycoord": 59.991216218824235 }, "geometry": { "type": "Point", "coordinates": [ 29.758931898818027, 59.991216218824235 ] } },
{ "type": "Feature", "properties": { "addr:housenumber": "52", "addr:street": "Посадская улица", "data_residents_sum": 13.0, "xcoord": 29.758477719052923, "ycoord": 59.991839397232802 }, "geometry": { "type": "Point", "coordinates": [ 29.758477719052923, 59.991839397232802 ] } },
{ "type": "Feature", "properties": { "addr:housenumber": "57", "addr:street": "проспект Ленина", "data_residents_sum": 81.0, "xcoord": 29.760796877860169, "ycoord": 59.9909998150085 }, "geometry": { "type": "Point", "coordinates": [ 29.760796877860169, 59.9909998150085 ] } },
{ "type": "Feature", "properties": { "addr:housenumber": "6", "addr:street": "улица Сургина", "data_residents_sum": 63.0, "xcoord": 29.760324017115558, "ycoord": 59.991548424013907 }, "geometry": { "type": "Point", "coordinates": [ 29.760324017115558, 59.991548424013907 ] } },
{ "type": "Feature", "properties": { "addr:housenumber": "47", "addr:street": "проспект Ленина", "data_residents_sum": 361.0, "xcoord": 29.761809543283494, "ycoord": 59.992402682406386 }, "geometry": { "type": "Point", "coordinates": [ 29.761809543283494, 59.992402682406386 ] } },
{ "type": "Feature", "properties": { "addr:housenumber": "7", "addr:street": "улица Сургина", "data_residents_sum": 43.0, "xcoord": 29.76079669257404, "ycoord": 59.992289249564514 }, "geometry": { "type": "Point", "coordinates": [ 29.76079669257404, 59.992289249564514 ] } },
{ "type": "Feature", "properties": { "addr:housenumber": "47", "addr:street": "Советская улица", "data_residents_sum": 39.0, "xcoord": 29.768379570566154, "ycoord": 59.995545155536668 }, "geometry": { "type": "Point", "coordinates": [ 29.768379570566154, 59.995545155536668 ] } },
{ "type": "Feature", "properties": { "addr:housenumber": "3В", "addr:street": "Якорная площадь", "data_residents_sum": 184.0, "xcoord": 29.77997390689935, "ycoord": 59.991258472616408 }, "geometry": { "type": "Point", "coordinates": [ 29.77997390689935, 59.991258472616408 ] } },
{ "type": "Feature", "properties": { "addr:housenumber": "10 к1", "addr:street": "Кронштадтское шоссе", "data_residents_sum": 89.0, "xcoord": 29.756669886485035, "ycoord": 60.001869299055841 }, "geometry": { "type": "Point", "coordinates": [ 29.756669886485035, 60.001869299055841 ] } },
{ "type": "Feature", "properties": { "addr:housenumber": "10 к2", "addr:street": "Кронштадтское шоссе", "data_residents_sum": 40.0, "xcoord": 29.756042625967524, "ycoord": 60.001418786321835 }, "geometry": { "type": "Point", "coordinates": [ 29.756042625967524, 60.001418786321835 ] } },
{ "type": "Feature", "properties": { "addr:housenumber": "10 к3", "addr:street": "Кронштадтское шоссе", "data_residents_sum": 58.0, "xcoord": 29.755388230244929, "ycoord": 60.000965431589542 }, "geometry": { "type": "Point", "coordinates": [ 29.755388230244929, 60.000965431589542 ] } },
{ "type": "Feature", "properties": { "addr:housenumber": "12", "addr:street": "Кронштадтское шоссе", "data_residents_sum": 96.0, "xcoord": 29.756238373002407, "ycoord": 60.000627397141464 }, "geometry": { "type": "Point", "coordinates": [ 29.756238373002407, 60.000627397141464 ] } },
{ "type": "Feature", "properties": { "addr:housenumber": "6 к1", "addr:street": "Кронштадтское шоссе", "data_residents_sum": 100.0, "xcoord": 29.757632338235471, "ycoord": 60.001614917948295 }, "geometry": { "type": "Point", "coordinates": [ 29.757632338235471, 60.001614917948295 ] } },
{ "type": "Feature", "properties": { "addr:housenumber": "6 к2", "addr:street": "Кронштадтское шоссе", "data_residents_sum": 17.0, "xcoord": 29.757040424075452, "ycoord": 60.001125358806576 }, "geometry": { "type": "Point", "coordinates": [ 29.757040424075452, 60.001125358806576 ] } },
{ "type": "Feature", "properties": { "addr:housenumber": "8", "addr:street": "Кронштадтское шоссе", "data_residents_sum": 65.0, "xcoord": 29.757463531875043, "ycoord": 60.00212795627489 }, "geometry": { "type": "Point", "coordinates": [ 29.757463531875043, 60.00212795627489 ] } },
{ "type": "Feature", "properties": { "addr:housenumber": "34", "addr:street": "Посадская улица", "data_residents_sum": 401.0, "xcoord": 29.761107854956812, "ycoord": 59.99484345547323 }, "geometry": { "type": "Point", "coordinates": [ 29.761107854956812, 59.99484345547323 ] } },
{ "type": "Feature", "properties": { "addr:housenumber": "29", "addr:street": "проспект Ленина", "data_residents_sum": 43.0, "xcoord": 29.764077753220199, "ycoord": 59.995038213443863 }, "geometry": { "type": "Point", "coordinates": [ 29.764077753220199, 59.995038213443863 ] } },
{ "type": "Feature", "properties": { "addr:housenumber": "31", "addr:street": "проспект Ленина", "data_residents_sum": 192.0, "xcoord": 29.763897013218077, "ycoord": 59.99477528155824 }, "geometry": { "type": "Point", "coordinates": [ 29.763897013218077, 59.99477528155824 ] } },
{ "type": "Feature", "properties": { "addr:housenumber": "21\/2", "addr:street": "проспект Ленина", "data_residents_sum": 82.0, "xcoord": 29.765177000602961, "ycoord": 59.996127759906926 }, "geometry": { "type": "Point", "coordinates": [ 29.765177000602961, 59.996127759906926 ] } },
{ "type": "Feature", "properties": { "addr:housenumber": "8 к2", "addr:street": "Петровская улица", "data_residents_sum": 30.0, "xcoord": 29.77746376861429, "ycoord": 59.986668415147378 }, "geometry": { "type": "Point", "coordinates": [ 29.77746376861429, 59.986668415147378 ] } },
{ "type": "Feature", "properties": { "addr:housenumber": "8 к3", "addr:street": "Петровская улица", "data_residents_sum": 110.0, "xcoord": 29.776563600144382, "ycoord": 59.986746423400838 }, "geometry": { "type": "Point", "coordinates": [ 29.776563600144382, 59.986746423400838 ] } },
{ "type": "Feature", "properties": { "addr:housenumber": "4", "addr:street": "улица Гидростроителей", "data_residents_sum": 456.0, "xcoord": 29.721716925556876, "ycoord": 60.011712042788389 }, "geometry": { "type": "Point", "coordinates": [ 29.721716925556876, 60.011712042788389 ] } },
{ "type": "Feature", "properties": { "addr:housenumber": "36А", "addr:street": "Кронштадтское шоссе", "data_residents_sum": 724.0, "xcoord": 29.724706154554354, "ycoord": 60.011401667523636 }, "geometry": { "type": "Point", "coordinates": [ 29.724706154554354, 60.011401667523636 ] } },
{ "type": "Feature", "properties": { "addr:housenumber": "6", "addr:street": "улица Гидростроителей", "data_residents_sum": 209.0, "xcoord": 29.719793453700095, "ycoord": 60.011418924069545 }, "geometry": { "type": "Point", "coordinates": [ 29.719793453700095, 60.011418924069545 ] } },
{ "type": "Feature", "properties": { "addr:housenumber": "1", "addr:street": "проспект Ленина", "data_residents_sum": 164.0, "xcoord": 29.768587211073697, "ycoord": 60.000482148331152 }, "geometry": { "type": "Point", "coordinates": [ 29.768587211073697, 60.000482148331152 ] } },
{ "type": "Feature", "properties": { "addr:housenumber": "5А", "addr:street": "проспект Ленина", "data_residents_sum": 391.0, "xcoord": 29.768010464173969, "ycoord": 59.999784911716404 }, "geometry": { "type": "Point", "coordinates": [ 29.768010464173969, 59.999784911716404 ] } },
{ "type": "Feature", "properties": { "addr:housenumber": "7", "addr:street": "улица Станюковича", "data_residents_sum": 529.0, "xcoord": 29.722130911924534, "ycoord": 60.010761506454912 }, "geometry": { "type": "Point", "coordinates": [ 29.722130911924534, 60.010761506454912 ] } },
{ "type": "Feature", "properties": { "addr:housenumber": "3", "addr:street": "улица Гусева", "data_residents_sum": 522.0, "xcoord": 29.786816565402376, "ycoord": 59.993287441894992 }, "geometry": { "type": "Point", "coordinates": [ 29.786816565402376, 59.993287441894992 ] } },
{ "type": "Feature", "properties": { "addr:housenumber": "43", "addr:street": "Цитадельское шоссе", "data_residents_sum": 40.0, "xcoord": 29.717955357385595, "ycoord": 60.008242957409834 }, "geometry": { "type": "Point", "coordinates": [ 29.717955357385595, 60.008242957409834 ] } },
{ "type": "Feature", "properties": { "addr:housenumber": "8", "addr:street": "улица Станюковича", "data_residents_sum": 876.0, "xcoord": 29.718763407454041, "ycoord": 60.009717632976972 }, "geometry": { "type": "Point", "coordinates": [ 29.718763407454041, 60.009717632976972 ] } },
{ "type": "Feature", "properties": { "addr:housenumber": "45\/12", "addr:street": "Цитадельское шоссе", "data_residents_sum": 139.0, "xcoord": 29.715973409015252, "ycoord": 60.008351981882193 }, "geometry": { "type": "Point", "coordinates": [ 29.715973409015252, 60.008351981882193 ] } },
{ "type": "Feature", "properties": { "addr:housenumber": "4", "addr:street": "улица Зосимова", "data_residents_sum": 518.0, "xcoord": 29.763146586266075, "ycoord": 60.000880507743624 }, "geometry": { "type": "Point", "coordinates": [ 29.763146586266075, 60.000880507743624 ] } },
{ "type": "Feature", "properties": { "addr:housenumber": "11\/37", "addr:street": "улица Литке", "data_residents_sum": 47.0, "xcoord": 29.724234331710207, "ycoord": 60.007985479204478 }, "geometry": { "type": "Point", "coordinates": [ 29.724234331710207, 60.007985479204478 ] } },
{ "type": "Feature", "properties": { "addr:housenumber": "15", "addr:street": "Посадская улица", "data_residents_sum": 473.0, "xcoord": 29.762621010468283, "ycoord": 59.997909327541841 }, "geometry": { "type": "Point", "coordinates": [ 29.762621010468283, 59.997909327541841 ] } },
{ "type": "Feature", "properties": { "addr:housenumber": "6", "addr:street": "Ленинградская улица", "data_residents_sum": 213.0, "xcoord": 29.78938502644457, "ycoord": 59.987689570801862 }, "geometry": { "type": "Point", "coordinates": [ 29.78938502644457, 59.987689570801862 ] } },
{ "type": "Feature", "properties": { "addr:housenumber": "11", "addr:street": "улица Зосимова", "data_residents_sum": 69.0, "xcoord": 29.758021758457055, "ycoord": 59.996512319382909 }, "geometry": { "type": "Point", "coordinates": [ 29.758021758457055, 59.996512319382909 ] } },
{ "type": "Feature", "properties": { "addr:housenumber": "39", "addr:street": "Цитадельское шоссе", "data_residents_sum": 221.0, "xcoord": 29.722124744615783, "ycoord": 60.007710337106587 }, "geometry": { "type": "Point", "coordinates": [ 29.722124744615783, 60.007710337106587 ] } },
{ "type": "Feature", "properties": { "addr:housenumber": "41", "addr:street": "Цитадельское шоссе", "data_residents_sum": 375.0, "xcoord": 29.721161916211063, "ycoord": 60.008390663880974 }, "geometry": { "type": "Point", "coordinates": [ 29.721161916211063, 60.008390663880974 ] } },
{ "type": "Feature", "properties": { "addr:housenumber": "7\/32", "addr:street": "улица Литке", "data_residents_sum": 616.0, "xcoord": 29.726699787599564, "ycoord": 60.01013710542999 }, "geometry": { "type": "Point", "coordinates": [ 29.726699787599564, 60.01013710542999 ] } },
{ "type": "Feature", "properties": { "addr:housenumber": "34", "addr:street": "Кронштадтское шоссе", "data_residents_sum": 69.0, "xcoord": 29.725948502119319, "ycoord": 60.010756933828802 }, "geometry": { "type": "Point", "coordinates": [ 29.725948502119319, 60.010756933828802 ] } },
{ "type": "Feature", "properties": { "addr:housenumber": "1\/9", "addr:street": "улица Станюковича", "data_residents_sum": 30.0, "xcoord": 29.725509275506145, "ycoord": 60.009330530725506 }, "geometry": { "type": "Point", "coordinates": [ 29.725509275506145, 60.009330530725506 ] } },
{ "type": "Feature", "properties": { "addr:housenumber": "28", "addr:street": "Кронштадтское шоссе", "data_residents_sum": 20.0, "xcoord": 29.731848124229749, "ycoord": 60.008816244888408 }, "geometry": { "type": "Point", "coordinates": [ 29.731848124229749, 60.008816244888408 ] } },
{ "type": "Feature", "properties": { "addr:housenumber": "19", "addr:street": "Советская улица", "data_residents_sum": 201.0, "xcoord": 29.781664473764359, "ycoord": 59.992899274947106 }, "geometry": { "type": "Point", "coordinates": [ 29.781664473764359, 59.992899274947106 ] } }
]
}
